STARLINK-36535          
1 67986U 26039A   26086.83335647  .00002105  00000+0  83962-4 0  9996
2 67986  42.9992 307.0159 0001543 257.6507  41.5123 15.28400739  5799
STARLINK-36744          
1 67987U 26039B   26086.83335647 -.03037373  00000+0 -11728+0 0  9993
2 67987  42.9990 306.8053 0001599 251.1266 134.7277 15.29888263  5798
STARLINK-36734          
1 67988U 26039C   26086.83335647 -.01966004  00000+0 -38255-1 0  9990
2 67988  42.9998 307.5140 0001469 276.5469 185.7671 15.49977006  5794
STARLINK-36957          
1 67989U 26039D   26086.83335647 -.02212003  00000+0 -78056-1 0  9998
2 67989  42.9997 306.7511 0000854 275.7825 132.8536 15.32122769  5794
STARLINK-36951          
1 67990U 26039E   26086.89192142 -.00300236  00000+0 -78382-2 0  9994
2 67990  42.9987 306.4466 0001646 230.1668 129.9043 15.39232330  4489
STARLINK-36941          
1 67991U 26039F   26086.87883058  .00072776  00000+0  12321-2 0  9990
2 67991  42.9981 307.2345 0001256 249.1149 110.9577 15.50640797  4474
STARLINK-36950          
1 67992U 26039G   26086.65825417  .00064563  00000+0  10953-2 0  9996
2 67992  42.9991 308.1466 0000700  79.8003 280.2936 15.50630407  4444
STARLINK-36975          
1 67993U 26039H   26086.32915547  .00089002  00000+0  15043-2 0  9995
2 67993  43.0005 309.9746 0001252 276.4101  83.6617 15.50605746  4393
STARLINK-36993          
1 67994U 26039J   26086.83335647 -.01881278  00000+0 -58259-1 0  9992
2 67994  42.9989 306.5385 0001374 273.7250 221.8489 15.36191986  5793
STARLINK-36968          
1 67995U 26039K   26086.66574733  .00063943  00000+0  10849-2 0  9997
2 67995  43.0002 308.2058 0000656  99.9619 260.1315 15.50630410  4448
STARLINK-36979          
1 67996U 26039L   26086.83335647 -.01800361  00000+0 -57833-1 0  9995
2 67996  42.9993 306.4616 0001508 276.8293 249.7591 15.34906231  5794
STARLINK-36994          
1 67997U 26039M   26086.87593675 -.00455288  00000+0 -87605-2 0  9991
2 67997  43.0008 306.3206 0001988 254.6480 105.4160 15.48767364  4484
STARLINK-36988          
1 67998U 26039N   26086.83335647 -.01944785  00000+0 -44640-1 0  9998
2 67998  42.9995 306.5391 0001293 279.3120 216.5665 15.45243756  5799
STARLINK-36926          
1 67999U 26039P   26086.87407550  .00089269  00000+0  15734-2 0  9993
2 67999  43.0023 306.3045 0008090 117.2676 242.9009 15.49388678  4483
STARLINK-36931          
1 68000U 26039Q   26086.83335647 -.01920636  00000+0 -46936-1 0  9992
2 68000  43.0002 306.3172 0000869 276.5472 308.9251 15.43380956  5796
STARLINK-36903          
1 68001U 26039R   26086.83335647 -.03555924  00000+0 -13033+0 0  9999
2 68001  42.9989 306.9480 0001754 252.6539  74.4628 15.31523588  5790
STARLINK-36898          
1 68002U 26039S   26086.83335647 -.00011173  00000+0 -38717-3 0  9990
2 68002  42.9991 306.7860 0001712 244.9386 146.9783 15.28400844  5794
STARLINK-36862          
1 68003U 26039T   26086.83335647  .00004592  00000+0  17202-3 0  9992
2 68003  42.9996 306.9705 0000957 246.5023  69.4925 15.28393601  5795
STARLINK-36888          
1 68004U 26039U   26086.83335647  .00008804  00000+0  32107-3 0  9994
2 68004  42.9988 306.9857 0001664 265.4704  45.6085 15.28392148  5795
STARLINK-36910          
1 68005U 26039V   26086.83335647  .00004367  00000+0  16407-3 0  9990
2 68005  42.9994 306.7245 0001616 259.3195 157.1418 15.28391902  5791
STARLINK-36889          
1 68006U 26039W   26086.83335647 -.01870451  00000+0 -54434-1 0  9999
2 68006  42.9995 306.7106 0001395 264.8612 160.4988 15.38072037  5793
STARLINK-36592          
1 68007U 26039X   26086.83335647 -.02207394  00000+0 -77070-1 0  9992
2 68007  42.9996 306.5910 0000959 248.5575 223.1518 15.32449813  5798
STARLINK-36911          
1 68008U 26039Y   26086.83335647 -.01881870  00000+0 -58305-1 0  9999
2 68008  42.9991 306.5494 0001395 276.7939 212.9892 15.36178437  5799
STARLINK-36956          
1 68009U 26039Z   26086.83335647 -.01875830  00000+0 -54074-1 0  9998
2 68009  43.0002 306.5548 0001431 279.7507 208.2887 15.38370055  5794
STARLINK-36953          
1 68010U 26039AA  26086.83335647 -.02196166  00000+0 -80124-1 0  9994
2 68010  43.0012 306.2848 0001803 255.7960 338.9349 15.31032180  5798
STARLINK-36991          
1 68011U 26039AB  26086.65482138  .00078986  00000+0  13382-2 0  9991
2 68011  43.0014 308.1144 0001977 270.4204  89.6429 15.50587862  4441
STARLINK-36936          
1 68012U 26039AC  26086.83335647 -.01931605  00000+0 -46380-1 0  9996
2 68012  43.0003 306.4057 0001027 267.1006 281.2982 15.43914339  5791
STARLINK-36967          
1 68013U 26039AD  26086.32740020  .00069652  00000+0  11818-2 0  9996
2 68013  43.0010 309.9558 0000973 282.6644  77.4107 15.50598144  4392
STARLINK-36985          
1 68014U 26039AE  26086.83335647 -.02195939  00000+0 -77569-1 0  9994
2 68014  42.9997 306.1892 0001593 266.2718   7.4850 15.32057681  5793
STARLINK-36335          
1 68015U 26040A   26086.84933361  .00181507  00000+0  11885-2 0  9997
2 68015  97.2870  36.1844 0001276  92.9276 267.2135 15.75259163  4219
STARLINK-36923          
1 68016U 26040B   26086.84827497  .00295418  00000+0  19053-2 0  9992
2 68016  97.2851  36.1862 0002435 108.7353 251.4177 15.75291562  4219
STARLINK-36568          
1 68017U 26040C   26086.84756958  .00191084  00000+0  12513-2 0  9994
2 68017  97.2859  36.1883 0001169 128.7377 231.3993 15.75231634  4219
STARLINK-36930          
1 68018U 26040D   26086.84898156  .00188509  00000+0  12337-2 0  9994
2 68018  97.2870  36.1859 0001368  71.5495 288.5919 15.75251429  4219
STARLINK-36921          
1 68019U 26040E   26086.84510061  .00171631  00000+0  11253-2 0  9995
2 68019  97.2857  36.1945 0002417  65.8911 294.2607 15.75256287  4211
STARLINK-36928          
1 68020U 26040F   26086.84615995  .00223768  00000+0  14578-2 0  9991
2 68020  97.2862  36.1914 0001608  95.0995 265.0454 15.75258323  4212
STARLINK-36858          
1 68021U 26040G   26083.53835390  .00276588  00000+0  17848-2 0  9999
2 68021  97.2853  32.8877 0001694  78.8231 281.3225 15.75331784  3704
STARLINK-36916          
1 68022U 26040H   26086.83335647 -.01892105  00000+0 -16449-1 0  9993
2 68022  97.2858  36.1828 0001459  93.9924 202.2032 15.72356541  5344
STARLINK-36871          
1 68023U 26040J   26086.84368580  .00201862  00000+0  13198-2 0  9997
2 68023  97.2840  36.1925 0000851 123.5375 236.5972 15.75237638  4215
STARLINK-36891          
1 68024U 26040K   26086.84298294  .00174611  00000+0  11453-2 0  9995
2 68024  97.2867  36.1942 0001281 105.8458 254.2948 15.75238981  4219
STARLINK-36378          
1 68025U 26040L   26086.84157107  .00229625  00000+0  14943-2 0  9996
2 68025  97.2857  36.1987 0001688 114.0948 246.0494 15.75268467  4212
STARLINK-36884          
1 68026U 26040M   26086.84192509  .00211588  00000+0  13810-2 0  9993
2 68026  97.2864  36.1963 0000861  85.4974 274.6390 15.75249298  4210
STARLINK-36940          
1 68027U 26040N   26086.83309963  .00264956  00000+0  17193-2 0  9992
2 68027  97.2853  36.2150 0001580  92.9808 267.1638 15.75235329  4218
STARLINK-36253          
1 68028U 26040P   26086.83335647 -.01930915  00000+0 -58271-1 0  9990
2 68028  97.3014  35.6853 0003205  96.5556 113.8470 15.37747562  5440
STARLINK-36944          
1 68029U 26040Q   26086.84086281  .00284651  00000+0  18394-2 0  9998
2 68029  97.2867  36.1967 0001223 105.1535 254.9866 15.75277247  4210
STARLINK-36942          
1 68030U 26040R   26086.84015995  .00193568  00000+0  12662-2 0  9992
2 68030  97.2847  36.2010 0001673 102.7561 257.3891 15.75249802  4212
STARLINK-36913          
1 68031U 26040S   26086.83335647 -.01921715  00000+0 -20277-1 0  9997
2 68031  97.2852  36.1872 0001540 101.7655 196.7474 15.67216608  5347
STARLINK-36935          
1 68032U 26040T   26086.83451345  .00170242  00000+0  11171-2 0  9994
2 68032  97.2860  36.2096 0001302  86.0552 274.0862 15.75241727  4218
STARLINK-36947          
1 68033U 26040U   26086.83874879  .00221781  00000+0  14452-2 0  9996
2 68033  97.2847  36.2026 0001740  94.9034 265.2430 15.75259027  4211
STARLINK-36939          
1 68034U 26040V   26086.83871882 -.00850546  00000+0 -80166-2 0  9992
2 68034  97.2853  36.2063 0000659  96.4703 263.6634 15.69508589  4219
STARLINK-36943          
1 68035U 26040W   26086.83335647 -.00403788  00000+0 -28074-2 0  9999
2 68035  97.2853  36.2126 0000829  59.3454 292.2237 15.75425976  5392
STARLINK-36906          
1 68036U 26040X   26086.83335647 -.01914409  00000+0 -19808-1 0  9992
2 68036  97.2847  36.1955 0001420 100.5592 217.0837 15.67685626  5342
STARLINK-36388          
1 68037U 26040Y   26086.83521996  .00202998  00000+0  13270-2 0  9995
2 68037  97.2836  36.2086 0001094  83.8902 276.2488 15.75237689  4217
STARLINK-36895          
1 68038U 26040Z   26086.83733631  .00233765  00000+0  15209-2 0  9997
2 68038  97.2865  36.2045 0001437  96.0252 264.1177 15.75262374  4210
STARLINK-36373          
1 68039U 26040AA  26086.83335647 -.01915482  00000+0 -20420-1 0  9999
2 68039  97.2854  36.1897 0001531 106.3529 198.3562 15.66953542  5299
STARLINK-36711          
1 68040U 26041A   26086.85189012  .00301283  00000+0  18932-2 0  9998
2 68040  53.1587 331.6643 0000398  56.7390 303.3668 15.75324581  4087
STARLINK-36825          
1 68041U 26041B   26086.67731980  .00456143  00000+0  21813-2 0  9994
2 68041  53.1591 331.9773 0000975 311.8476  48.2463 15.81005356  4060
STARLINK-36925          
1 68042U 26041C   26086.85221991  .00290987  00000+0  18309-2 0  9999
2 68042  53.1584 331.6663 0001124 148.2064 211.9025 15.75325579  4080
STARLINK-36902          
1 68043U 26041D   26086.83335647 -.00057454  00000+0 -37278-3 0  9991
2 68043  53.1598 331.2299 0001073 120.5851  31.8866 15.75263005  5298
STARLINK-36966          
1 68044U 26041E   26086.40355384  .00263585  00000+0  16643-2 0  9999
2 68044  53.1596 333.8438 0000983  62.5380 297.5740 15.75326149  4011
